[{"OBJECT_NAME":"SPOT 6","OBJECT_ID":"2012-047A","EPOCH":"2026-04-04T07:31:20.697600","MEAN_MOTION":14.58564441,"ECCENTRICITY":0.00014697,"INCLINATION":98.2175,"RA_OF_ASC_NODE":162.4686,"ARG_OF_PERICENTER":84.6301,"MEAN_ANOMALY":275.5066,"EPHEMERIS_TYPE":0,"CLASSIFICATION_TYPE":"U","NORAD_CAT_ID":38755,"ELEMENT_SET_NO":999,"REV_AT_EPOCH":72228,"BSTAR":0.00017995212,"MEAN_MOTION_DOT":7.91e-6,"MEAN_MOTION_DDOT":0},{"OBJECT_NAME":"PLEIADES 1B","OBJECT_ID":"2012-068A","EPOCH":"2026-04-04T06:20:32.152992","MEAN_MOTION":14.58550874,"ECCENTRICITY":0.00013056,"INCLINATION":98.198,"RA_OF_ASC_NODE":170.3238,"ARG_OF_PERICENTER":79.3313,"MEAN_ANOMALY":280.8033,"EPHEMERIS_TYPE":0,"CLASSIFICATION_TYPE":"U","NORAD_CAT_ID":39019,"ELEMENT_SET_NO":999,"REV_AT_EPOCH":71007,"BSTAR":0.00016461126,"MEAN_MOTION_DOT":7.19e-6,"MEAN_MOTION_DDOT":0},{"OBJECT_NAME":"GOKTURK 2","OBJECT_ID":"2012-073A","EPOCH":"2026-04-04T07:09:39.968928","MEAN_MOTION":14.75469524,"ECCENTRICITY":0.00011097,"INCLINATION":97.6865,"RA_OF_ASC_NODE":295.4139,"ARG_OF_PERICENTER":107.6137,"MEAN_ANOMALY":252.5195,"EPHEMERIS_TYPE":0,"CLASSIFICATION_TYPE":"U","NORAD_CAT_ID":39030,"ELEMENT_SET_NO":999,"REV_AT_EPOCH":71361,"BSTAR":9.2077204e-5,"MEAN_MOTION_DOT":5.79e-6,"MEAN_MOTION_DDOT":0},{"OBJECT_NAME":"LANDSAT 8","OBJECT_ID":"2013-008A","EPOCH":"2026-04-04T04:55:34.953024","MEAN_MOTION":14.57110253,"ECCENTRICITY":0.00012171,"INCLINATION":98.1875,"RA_OF_ASC_NODE":165.5063,"ARG_OF_PERICENTER":89.7565,"MEAN_ANOMALY":270.3773,"EPHEMERIS_TYPE":0,"CLASSIFICATION_TYPE":"U","NORAD_CAT_ID":39084,"ELEMENT_SET_NO":999,"REV_AT_EPOCH":68712,"BSTAR":0.00014256098,"MEAN_MOTION_DOT":5.97e-6,"MEAN_MOTION_DDOT":0},{"OBJECT_NAME":"SARAL","OBJECT_ID":"2013-009A","EPOCH":"2026-04-04T05:30:20.506464","MEAN_MOTION":14.32837628,"ECCENTRICITY":0.00027097,"INCLINATION":98.5564,"RA_OF_ASC_NODE":281.7275,"ARG_OF_PERICENTER":123.5759,"MEAN_ANOMALY":236.5684,"EPHEMERIS_TYPE":0,"CLASSIFICATION_TYPE":"U","NORAD_CAT_ID":39086,"ELEMENT_SET_NO":999,"REV_AT_EPOCH":68501,"BSTAR":8.3887369e-5,"MEAN_MOTION_DOT":1.85e-6,"MEAN_MOTION_DDOT":0},{"OBJECT_NAME":"GAOFEN-1","OBJECT_ID":"2013-018A","EPOCH":"2026-04-04T06:20:42.545184","MEAN_MOTION":14.76528654,"ECCENTRICITY":0.00180961,"INCLINATION":97.9138,"RA_OF_ASC_NODE":167.8204,"ARG_OF_PERICENTER":140.6659,"MEAN_ANOMALY":219.5869,"EPHEMERIS_TYPE":0,"CLASSIFICATION_TYPE":"U","NORAD_CAT_ID":39150,"ELEMENT_SET_NO":999,"REV_AT_EPOCH":69733,"BSTAR":0.000179828,"MEAN_MOTION_DOT":1.206e-5,"MEAN_MOTION_DDOT":0},{"OBJECT_NAME":"VNREDSAT 1","OBJECT_ID":"2013-021B","EPOCH":"2026-04-04T06:00:22.655808","MEAN_MOTION":14.64929338,"ECCENTRICITY":0.00013773,"INCLINATION":97.916,"RA_OF_ASC_NODE":150.4745,"ARG_OF_PERICENTER":82.4448,"MEAN_ANOMALY":277.6912,"EPHEMERIS_TYPE":0,"CLASSIFICATION_TYPE":"U","NORAD_CAT_ID":39160,"ELEMENT_SET_NO":999,"REV_AT_EPOCH":68946,"BSTAR":0.00022265197,"MEAN_MOTION_DOT":1.146e-5,"MEAN_MOTION_DDOT":0},{"OBJECT_NAME":"ARIRANG-5 (KOMPSAT-5)","OBJECT_ID":"2013-042A","EPOCH":"2026-04-04T06:36:26.947296","MEAN_MOTION":15.04504338,"ECCENTRICITY":0.00043875,"INCLINATION":97.6193,"RA_OF_ASC_NODE":282.0056,"ARG_OF_PERICENTER":45.7458,"MEAN_ANOMALY":314.4128,"EPHEMERIS_TYPE":0,"CLASSIFICATION_TYPE":"U","NORAD_CAT_ID":39227,"ELEMENT_SET_NO":999,"REV_AT_EPOCH":69274,"BSTAR":0.00013704373,"MEAN_MOTION_DOT":1.858e-5,"MEAN_MOTION_DDOT":0},{"OBJECT_NAME":"SKYSAT-A","OBJECT_ID":"2013-066C","EPOCH":"2026-04-04T02:34:20.180064","MEAN_MOTION":15.12548952,"ECCENTRICITY":0.00209775,"INCLINATION":97.3894,"RA_OF_ASC_NODE":145.8568,"ARG_OF_PERICENTER":206.6429,"MEAN_ANOMALY":153.3726,"EPHEMERIS_TYPE":0,"CLASSIFICATION_TYPE":"U","NORAD_CAT_ID":39418,"ELEMENT_SET_NO":999,"REV_AT_EPOCH":67728,"BSTAR":0.00035656116,"MEAN_MOTION_DOT":6.185e-5,"MEAN_MOTION_DDOT":0},{"OBJECT_NAME":"DUBAISAT-2","OBJECT_ID":"2013-066D","EPOCH":"2026-04-04T05:52:12.999360","MEAN_MOTION":15.0964809,"ECCENTRICITY":0.00096039,"INCLINATION":97.4553,"RA_OF_ASC_NODE":86.3674,"ARG_OF_PERICENTER":291.9309,"MEAN_ANOMALY":68.0899,"EPHEMERIS_TYPE":0,"CLASSIFICATION_TYPE":"U","NORAD_CAT_ID":39419,"ELEMENT_SET_NO":999,"REV_AT_EPOCH":67523,"BSTAR":0.00070752652,"MEAN_MOTION_DOT":0.00011344,"MEAN_MOTION_DDOT":0},{"OBJECT_NAME":"GPM-CORE","OBJECT_ID":"2014-009C","EPOCH":"2026-04-04T06:43:21.583488","MEAN_MOTION":15.44305318,"ECCENTRICITY":0.00129818,"INCLINATION":64.9734,"RA_OF_ASC_NODE":195.743,"ARG_OF_PERICENTER":254.8351,"MEAN_ANOMALY":105.1354,"EPHEMERIS_TYPE":0,"CLASSIFICATION_TYPE":"U","NORAD_CAT_ID":39574,"ELEMENT_SET_NO":999,"REV_AT_EPOCH":68639,"BSTAR":0.00048031125,"MEAN_MOTION_DOT":0.0002213,"MEAN_MOTION_DDOT":0},{"OBJECT_NAME":"SENTINEL-1A","OBJECT_ID":"2014-016A","EPOCH":"2026-04-04T07:26:56.571072","MEAN_MOTION":14.59196757,"ECCENTRICITY":0.00013863,"INCLINATION":98.1807,"RA_OF_ASC_NODE":102.9136,"ARG_OF_PERICENTER":87.2757,"MEAN_ANOMALY":272.8601,"EPHEMERIS_TYPE":0,"CLASSIFICATION_TYPE":"U","NORAD_CAT_ID":39634,"ELEMENT_SET_NO":999,"REV_AT_EPOCH":63924,"BSTAR":1.2635504e-5,"MEAN_MOTION_DOT":1.4e-7,"MEAN_MOTION_DDOT":0},{"OBJECT_NAME":"KAZEOSAT 1","OBJECT_ID":"2014-024A","EPOCH":"2026-04-04T06:21:41.025888","MEAN_MOTION":14.42050252,"ECCENTRICITY":0.00011251,"INCLINATION":98.3245,"RA_OF_ASC_NODE":168.5392,"ARG_OF_PERICENTER":102.7093,"MEAN_ANOMALY":257.4223,"EPHEMERIS_TYPE":0,"CLASSIFICATION_TYPE":"U","NORAD_CAT_ID":39731,"ELEMENT_SET_NO":999,"REV_AT_EPOCH":62790,"BSTAR":0.00012864405,"MEAN_MOTION_DOT":3.8e-6,"MEAN_MOTION_DDOT":0},{"OBJECT_NAME":"ALOS-2","OBJECT_ID":"2014-029A","EPOCH":"2026-04-04T06:48:58.768128","MEAN_MOTION":14.79450486,"ECCENTRICITY":0.00019262,"INCLINATION":97.9197,"RA_OF_ASC_NODE":192.5087,"ARG_OF_PERICENTER":98.8518,"MEAN_ANOMALY":261.2912,"EPHEMERIS_TYPE":0,"CLASSIFICATION_TYPE":"U","NORAD_CAT_ID":39766,"ELEMENT_SET_NO":999,"REV_AT_EPOCH":64065,"BSTAR":-5.783421e-6,"MEAN_MOTION_DOT":-9.5e-7,"MEAN_MOTION_DDOT":0},{"OBJECT_NAME":"KAZEOSAT 2","OBJECT_ID":"2014-033A","EPOCH":"2026-04-04T06:23:16.155744","MEAN_MOTION":14.85384002,"ECCENTRICITY":0.00079088,"INCLINATION":97.5463,"RA_OF_ASC_NODE":297.7608,"ARG_OF_PERICENTER":193.5542,"MEAN_ANOMALY":166.5462,"EPHEMERIS_TYPE":0,"CLASSIFICATION_TYPE":"U","NORAD_CAT_ID":40010,"ELEMENT_SET_NO":999,"REV_AT_EPOCH":63798,"BSTAR":0.00019990493,"MEAN_MOTION_DOT":1.671e-5,"MEAN_MOTION_DDOT":0},{"OBJECT_NAME":"HODOYOSHI-4","OBJECT_ID":"2014-033B","EPOCH":"2026-04-04T06:24:43.943328","MEAN_MOTION":14.87941005,"ECCENTRICITY":0.00234491,"INCLINATION":97.5452,"RA_OF_ASC_NODE":282.6622,"ARG_OF_PERICENTER":187.0564,"MEAN_ANOMALY":173.0327,"EPHEMERIS_TYPE":0,"CLASSIFICATION_TYPE":"U","NORAD_CAT_ID":40011,"ELEMENT_SET_NO":999,"REV_AT_EPOCH":63781,"BSTAR":0.00023891579,"MEAN_MOTION_DOT":2.148e-5,"MEAN_MOTION_DDOT":0},{"OBJECT_NAME":"DEIMOS-2","OBJECT_ID":"2014-033D","EPOCH":"2026-04-04T05:20:51.724896","MEAN_MOTION":14.93521183,"ECCENTRICITY":0.00013876,"INCLINATION":97.5934,"RA_OF_ASC_NODE":331.2782,"ARG_OF_PERICENTER":106.3448,"MEAN_ANOMALY":253.7925,"EPHEMERIS_TYPE":0,"CLASSIFICATION_TYPE":"U","NORAD_CAT_ID":40013,"ELEMENT_SET_NO":999,"REV_AT_EPOCH":62668,"BSTAR":0.00029783159,"MEAN_MOTION_DOT":3.082e-5,"MEAN_MOTION_DDOT":0}]
