SPOT 6                  
1 38755U 12047A   26094.31343400  .00000791  00000+0  17995-3 0  9991
2 38755  98.2175 162.4686 0001469  84.6301 275.5066 14.58564441722281
PLEIADES 1B             
1 39019U 12068A   26094.26426103  .00000719  00000+0  16461-3 0  9991
2 39019  98.1980 170.3238 0001305  79.3313 280.8033 14.58550874710074
GOKTURK 2               
1 39030U 12073A   26094.29837927  .00000579  00000+0  92077-4 0  9995
2 39030  97.6865 295.4139 0001109 107.6137 252.5195 14.75469524713611
LANDSAT 8               
1 39084U 13008A   26094.20526566  .00000597  00000+0  14256-3 0  9990
2 39084  98.1875 165.5063 0001217  89.7565 270.3773 14.57110253687123
SARAL                   
1 39086U 13009A   26094.22940401  .00000185  00000+0  83887-4 0  9993
2 39086  98.5564 281.7275 0002709 123.5759 236.5684 14.32837628685015
GAOFEN-1                
1 39150U 13018A   26094.26438131  .00001206  00000+0  17983-3 0  9999
2 39150  97.9138 167.8204 0018096 140.6659 219.5869 14.76528654697336
VNREDSAT 1              
1 39160U 13021B   26094.25026222  .00001146  00000+0  22265-3 0  9999
2 39160  97.9160 150.4745 0001377  82.4448 277.6912 14.64929338689463
ARIRANG-5 (KOMPSAT-5)   
1 39227U 13042A   26094.27531189  .00001858  00000+0  13704-3 0  9999
2 39227  97.6193 282.0056 0004387  45.7458 314.4128 15.04504338692742
SKYSAT-A                
1 39418U 13066C   26094.10717801  .00006185  00000+0  35656-3 0  9994
2 39418  97.3894 145.8568 0020977 206.6429 153.3726 15.12548952677287
DUBAISAT-2              
1 39419U 13066D   26094.24459490  .00011344  00000+0  70753-3 0  9997
2 39419  97.4553  86.3674 0009603 291.9309  68.0899 15.09648090675231
GPM-CORE                
1 39574U 14009C   26094.28011092  .00022130  00000+0  48031-3 0  9992
2 39574  64.9734 195.7430 0012981 254.8351 105.1354 15.44305318686396
SENTINEL-1A             
1 39634U 14016A   26094.31037698  .00000014  00000+0  12636-4 0  9991
2 39634  98.1807 102.9136 0001386  87.2757 272.8601 14.59196757639240
KAZEOSAT 1              
1 39731U 14024A   26094.26505817  .00000380  00000+0  12864-3 0  9993
2 39731  98.3245 168.5392 0001125 102.7093 257.4223 14.42050252627905
ALOS-2                  
1 39766U 14029A   26094.28401352 -.00000095  00000+0 -57834-5 0  9990
2 39766  97.9197 192.5087 0001926  98.8518 261.2912 14.79450486640656
KAZEOSAT 2              
1 40010U 14033A   26094.26615921  .00001671  00000+0  19990-3 0  9994
2 40010  97.5463 297.7608 0007908 193.5542 166.5462 14.85384002637981
HODOYOSHI-4             
1 40011U 14033B   26094.26717527  .00002148  00000+0  23892-3 0  9996
2 40011  97.5452 282.6622 0023449 187.0564 173.0327 14.87941005637818
DEIMOS-2                
1 40013U 14033D   26094.22282089  .00003082  00000+0  29783-3 0  9997
2 40013  97.5934 331.2782 0001387 106.3448 253.7925 14.93521183626686
